ONEWEB-0545             
1 54647U 22166F   24185.60025639  .00000014  00000+0  12405-5 0  9995
2 54647  87.9273  26.0564 0002294  93.6837 266.4559 13.21824404 77235
ONEWEB-0580             
1 54648U 22166G   24185.80053759  .00000059  00000+0  11226-3 0  9999
2 54648  87.9280  25.9866 0002089 102.0190 258.1178 13.21824373 77304
ONEWEB-0582             
1 54649U 22166H   24185.91880868 -.00000031  00000+0 -10578-3 0  9992
2 54649  87.9276  25.9998 0002108 107.3838 252.7527 13.21824206 77296
ONEWEB-0583             
1 54650U 22166J   24185.92985574  .00000019  00000+0  14069-4 0  9999
2 54650  87.9275  25.9977 0001947  87.6601 272.4756 13.21825244 77300
ONEWEB-0584             
1 54651U 22166K   24185.79896033 -.00000012  00000+0 -59356-4 0  9999
2 54651  87.9279  25.9903 0002010  96.2585 263.8778 13.21824320 77271
ONEWEB-0585             
1 54652U 22166L   24185.82418965  .00000075  00000+0  15050-3 0  9997
2 54652  87.9283  25.9941 0001794  84.1156 276.0182 13.21824388 77287
ONEWEB-0586             
1 54653U 22166M   24185.83680608 -.00000298  00000+0 -75229-3 0  9997
2 54653  87.9278  26.0056 0001506  74.6775 285.4526 13.21828688 77286
ONEWEB-0587             
1 54654U 22166N   24185.84627218  .00000004  00000+0 -22007-4 0  9998
2 54654  87.9275  25.9587 0001755  77.8652 282.2679 13.21826115 77441
